sat06829
1 06829U 73065B   20046.77185850  .00000042  00000-0  27081-4 0  9997
2 06829  82.9406  40.8909 0023865  32.8155 140.5019 13.77175160332167
